{"fetched_at":"2026-06-14T08:17:21Z","count":15259,"tles":[{"name":"LANDSAT 9","line1":"1 49260U 21088A   26164.62566903  .00000300  00000+0  76737-4 0  9992","line2":"2 49260  98.2281 234.8463 0001441  85.3931 274.7432 14.57094711250489","category":"Other"},{"name":"SENTINEL-6A","line1":"1 46984U 20086A   26164.33783880 -.00000048  00000+0  55082-4 0  9992","line2":"2 46984  66.0391 143.0475 0007947 270.2938  89.7167 12.80929986259839","category":"Other"},{"name":"GAOFEN-11 01","line1":"1 43585U 18063A   26164.63457713  .00020237  00000+0  30072-3 0  9996","line2":"2 43585  97.1300 231.5244 0003635  11.8475 348.2864 15.55200424439796","category":"Other"},{"name":"CAS500-1","line1":"1 47932U 21022A   26164.64018149  .00006745  00000+0  31461-3 0  9993","line2":"2 47932  97.3913  59.9658 0004011 319.3794  40.7141 15.20171465290227","category":"Other"},{"name":"ALOS-4 (DAICHI-4)","line1":"1 60182U 24123A   26164.57397324  .00001478  00000+0  20480-3 0  9994","line2":"2 60182  97.9244 261.7985 0001588  97.7376 262.4016 14.79469347105341","category":"Other"},{"name":"NEMO-HD","line1":"1 46277U 20061F   26164.63132964  .00010535  00000+0  22888-3 0  9992","line2":"2 46277  97.1927 226.6200 0002413  84.8387 275.3138 15.44527322321436","category":"Other"},{"name":"SAUDISAT 5A","line1":"1 43831U 18102A   26164.62858237  .00005717  00000+0  21156-3 0  9998","line2":"2 43831  97.3074 226.2778 0010782 140.0935 220.1100 15.28013766415134","category":"Other"},{"name":"ICESAT-2","line1":"1 43613U 18070A   26164.61914681  .00010614  00000+0  38582-3 0  9998","line2":"2 43613  92.0074 290.0150 0005849 114.1967 245.9895 15.28224718431913","category":"Other"},{"name":"CARTOSAT-3","line1":"1 44804U 19081A   26164.60072142  .00003474  00000+0  16772-3 0  9993","line2":"2 44804  97.4313 226.5252 0012807 160.0109 200.1630 15.19257522362921","category":"Other"},{"name":"IONOSFERA-M 1","line1":"1 61735U 24199A   26164.60716880  .00000049  00000+0  41640-4 0  9993","line2":"2 61735  98.7178  37.8171 0001852 115.0655 245.0715 14.22753648127196","category":"Other"},{"name":"SAUDISAT 5B","line1":"1 43833U 18102C   26164.64802630  .00005497  00000+0  20192-3 0  9992","line2":"2 43833  97.3183 229.3601 0011432 142.3453 217.8589 15.28272533415255","category":"Other"},{"name":"HYSIS","line1":"1 43719U 18096A   26164.62497584  .00001813  00000+0  25427-3 0  9997","line2":"2 43719  97.9846 231.4013 0001892 109.5227 250.6189 14.78691911406894","category":"Other"},{"name":"PARS 1","line1":"1 59065U 24039Q   26164.62444491  .00011400  00000+0  23780-3 0  9994","line2":"2 59065  97.4814 145.4318 0011298 122.2809 237.9536 15.45656116128096","category":"Other"},{"name":"KAZSTSAT","line1":"1 43783U 18099AB  26164.62833777  .00001402  00000+0  11763-3 0  9991","line2":"2 43783  97.4265 196.7185 0008304  79.1176 281.0983 14.99856446410779","category":"Other"},{"name":"GAOFEN-12 02","line1":"1 48079U 21026A   26164.64340881  .00000354  00000+0  53469-4 0  9994","line2":"2 48079  97.9928 162.8385 0003485 237.0087 123.0790 14.80293743281233","category":"Other"},{"name":"GAOFEN-12 03","line1":"1 52912U 22069A   26164.67268631  .00000899  00000+0  12543-3 0  9999","line2":"2 52912  97.8293  52.6318 0001930 106.1268 254.0157 14.80030073214097","category":"Other"},{"name":"CSG-1","line1":"1 44873U 19092A   26164.60830384  .00000401  00000+0  56927-4 0  9995","line2":"2 44873  97.8888 348.2628 0001468  89.0152 271.1230 14.82150502350948","category":"Other"},{"name":"CSG-2","line1":"1 51444U 22008A   26164.57453885 -.00000161  00000+0 -13624-4 0  9993","line2":"2 51444  97.8883 348.2249 0001428  85.4657 274.6719 14.82152426236052","category":"Other"},{"name":"LEGION 3","line1":"1 60452U 24146A   26164.57270650  .00003581  00000+0  19663-3 0  9999","line2":"2 60452  45.0026  49.9393 0007238 148.8101 211.3208 15.16014090101473","category":"Other"},{"name":"LEGION 4","line1":"1 60453U 24146B   26164.44397939  .00003259  00000+0  18002-3 0  9994","line2":"2 60453  44.9995 142.5405 0014057 288.8226  71.1128 15.16004181100305","category":"Other"},{"name":"GAOFEN-10R","line1":"1 44622U 19066A   26164.64539512  .00001089  00000+0  14060-3 0  9995","line2":"2 44622  98.0497 118.1989 0006451 137.2084 222.9632 14.83053807361853","category":"Other"}]}