OBJECT_NAME,OBJECT_ID,EPOCH,MEAN_MOTION,ECCENTRICITY,INCLINATION,RA_OF_ASC_NODE,ARG_OF_PERICENTER,MEAN_ANOMALY,EPHEMERIS_TYPE,CLASSIFICATION_TYPE,NORAD_CAT_ID,ELEMENT_SET_NO,REV_AT_EPOCH,BSTAR,MEAN_MOTION_DOT,MEAN_MOTION_DDOT
GAOFEN-11 01,2018-063A,2026-06-13T15:13:47.464032,15.55200424,.00036354,97.1300,231.5244,11.8475,348.2864,0,U,43585,999,43979,.30072247E-3,.20237E-3,0
ICESAT-2,2018-070A,2026-06-13T14:51:34.284384,15.28224718,.00058499,92.0074,290.0150,114.1967,245.9895,0,U,43613,999,43191,.38582423E-3,.10614E-3,0
HYSIS,2018-096A,2026-06-13T14:59:57.912576,14.78691911,.00018921,97.9846,231.4013,109.5227,250.6189,0,U,43719,999,40689,.25427287E-3,.1813E-4,0
KAZSTSAT,2018-099AB,2026-06-13T15:04:48.383328,14.99856446,.00083043,97.4265,196.7185,79.1176,281.0983,0,U,43783,999,41077,.11763132E-3,.1402E-4,0
SAUDISAT 5A,2018-102A,2026-06-13T15:05:09.516768,15.28013766,.00107823,97.3074,226.2778,140.0935,220.1100,0,U,43831,999,41513,.21156369E-3,.5717E-4,0
SAUDISAT 5B,2018-102C,2026-06-13T15:33:09.472320,15.28272533,.00114324,97.3183,229.3601,142.3453,217.8589,0,U,43833,999,41525,.20192431E-3,.5497E-4,0
GAOFEN-10R,2019-066A,2026-06-13T15:29:22.138368,14.83053807,.00064516,98.0497,118.1989,137.2084,222.9632,0,U,44622,999,36185,.14059875E-3,.1089E-4,0
CARTOSAT-3,2019-081A,2026-06-13T14:25:02.330688,15.19257522,.00128072,97.4313,226.5252,160.0109,200.1630,0,U,44804,999,36292,.16771551E-3,.3474E-4,0
CSG-1,2019-092A,2026-06-13T14:35:57.451776,14.82150502,.00014683,97.8888,348.2628,89.0152,271.1230,0,U,44873,999,35094,.56926734E-4,.401E-5,0
NEMO-HD,2020-061F,2026-06-13T15:09:06.880896,15.44527322,.00024131,97.1927,226.6200,84.8387,275.3138,0,U,46277,999,32143,.22887898E-3,.10535E-3,0
SENTINEL-6A,2020-086A,2026-06-13T08:06:29.272320,12.80929986,.00079475,66.0391,143.0475,270.2938,89.7167,0,U,46984,999,25983,.55082273E-4,-.48E-6,0
CAS500-1,2021-022A,2026-06-13T15:21:51.680736,15.20171465,.00040118,97.3913,59.9658,319.3794,40.7141,0,U,47932,999,29022,.31461276E-3,.6745E-4,0
GAOFEN-12 02,2021-026A,2026-06-13T15:26:30.521184,14.80293743,.00034855,97.9928,162.8385,237.0087,123.0790,0,U,48079,999,28123,.53468831E-4,.354E-5,0
LANDSAT 9,2021-088A,2026-06-13T15:00:57.804192,14.57094711,.00014412,98.2281,234.8463,85.3931,274.7432,0,U,49260,999,25048,.76737308E-4,.3E-5,0
CSG-2,2022-008A,2026-06-13T13:47:20.156640,14.82152426,.00014284,97.8883,348.2249,85.4657,274.6719,0,U,51444,999,23605,-.13623621E-4,-.161E-5,0
GAOFEN-12 03,2022-069A,2026-06-13T16:08:40.097184,14.80030073,.00019307,97.8293,52.6318,106.1268,254.0157,0,U,52912,999,21409,.12542614E-3,.899E-5,0
PARS 1,2024-039Q,2026-06-13T14:59:12.040224,15.45656116,.00112988,97.4814,145.4318,122.2809,237.9536,0,U,59065,999,12809,.2377958E-3,.114E-3,0
ALOS-4 (DAICHI-4),2024-123A,2026-06-13T13:46:31.287936,14.79469347,.0001588,97.9244,261.7985,97.7376,262.4016,0,U,60182,999,10534,.20480159E-3,.1478E-4,0
LEGION 3,2024-146A,2026-06-13T13:44:41.841600,15.16014090,.00072385,45.0026,49.9393,148.8101,211.3208,0,U,60452,999,10147,.19663385E-3,.3581E-4,0
LEGION 4,2024-146B,2026-06-13T10:39:19.819296,15.16004181,.00140572,44.9995,142.5405,288.8226,71.1128,0,U,60453,999,10030,.18002445E-3,.3259E-4,0
IONOSFERA-M 1,2024-199A,2026-06-13T14:34:19.384320,14.22753648,.00018521,98.7178,37.8171,115.0655,245.0715,0,U,61735,999,12719,.41639586E-4,.49E-6,0
